start=new Date('2022-11-11T00:00:00.000Z').valueOf();
sats=[{"EPOCH":"2022-11-10T12:43:52.865472","PERIOD":"95.593","MEAN_ELEMENT_THEORY":"SGP4","REF_FRAME":"TEME","MEAN_ANOMALY":"309.4197","EPHEMERIS_TYPE":"0","NORAD_CAT_ID":"48442","TLE_LINE1":"1 48442U 21040Q   22314.53047298 -.00004032  00000-0 -25207-3 0  9999","INCLINATION":"53.0542","SEMIMAJOR_AXIS":"6925.407","CENTER_NAME":"EARTH","TLE_LINE2":"2 48442  53.0542 236.6933 0001744  50.6947 309.4197 15.06380893 83470","DECAY_DATE":null,"ELEMENT_SET_NO":"999","TIME_SYSTEM":"UTC","PERIAPSIS":"546.064","RA_OF_ASC_NODE":"236.6933","ARG_OF_PERICENTER":"50.6947","COUNTRY_CODE":"US","ECCENTRICITY":"0.00017440","APOAPSIS":"548.480","MEAN_MOTION":"15.06380893","GP_ID":"217308268","MEAN_MOTION_DDOT":"0.0000000000000","OBJECT_ID":"2021-040Q","MEAN_MOTION_DOT":"-0.00004032","OBJECT_NAME":"STARLINK-2644","LAUNCH_DATE":"2021-05-09","RCS_SIZE":"LARGE","SITE":"AFETR","FILE":"3650424","OBJECT_TYPE":"PAYLOAD","BSTAR":"-0.00025207000000","CLASSIFICATION_TYPE":"U","REV_AT_EPOCH":"8347"},{"PERIAPSIS":"546.297","ELEMENT_SET_NO":"999","TIME_SYSTEM":"UTC","DECAY_DATE":null,"RA_OF_ASC_NODE":"238.7908","MEAN_ANOMALY":"300.6058","REF_FRAME":"TEME","PERIOD":"95.594","MEAN_ELEMENT_THEORY":"SGP4","EPOCH":"2022-11-10T01:29:46.626144","TLE_LINE2":"2 48443  53.0528 238.7908 0001432  59.5072 300.6058 15.06375630 83406","TLE_LINE1":"1 48443U 21040R   22314.06234521 -.00010918  00000-0 -71569-3 0  9997","NORAD_CAT_ID":"48443","SEMIMAJOR_AXIS":"6925.423","CENTER_NAME":"EARTH","INCLINATION":"53.0528","EPHEMERIS_TYPE":"0","SITE":"AFETR","RCS_SIZE":"LARGE","OBJECT_NAME":"STARLINK-2663","LAUNCH_DATE":"2021-05-09","MEAN_MOTION_DDOT":"0.0000000000000","GP_ID":"217308518","MEAN_MOTION_DOT":"-0.00010918","OBJECT_ID":"2021-040R","CLASSIFICATION_TYPE":"U","REV_AT_EPOCH":"8340","OBJECT_TYPE":"PAYLOAD","BSTAR":"-0.00071569000000","FILE":"3650424","ECCENTRICITY":"0.00014320","APOAPSIS":"548.280","ARG_OF_PERICENTER":"59.5072","COUNTRY_CODE":"US","MEAN_MOTION":"15.06375630"},{"RA_OF_ASC_NODE":"236.7213","PERIAPSIS":"546.235","TIME_SYSTEM":"UTC","ELEMENT_SET_NO":"999","DECAY_DATE":null,"TLE_LINE2":"2 48444  53.0543 236.7213 0001546  49.2821 310.8302 15.06370069 83478","INCLINATION":"53.0543","SEMIMAJOR_AXIS":"6925.440","CENTER_NAME":"EARTH","TLE_LINE1":"1 48444U 21040S   22314.52310152  .00009048  00000-0  62605-3 0  9995","NORAD_CAT_ID":"48444","EPHEMERIS_TYPE":"0","MEAN_ANOMALY":"310.8302","PERIOD":"95.594","MEAN_ELEMENT_THEORY":"SGP4","REF_FRAME":"TEME","EPOCH":"2022-11-10T12:33:15.971328","REV_AT_EPOCH":"8347","CLASSIFICATION_TYPE":"U","BSTAR":"0.00062605000000","OBJECT_TYPE":"PAYLOAD","FILE":"3650424","SITE":"AFETR","RCS_SIZE":"LARGE","LAUNCH_DATE":"2021-05-09","OBJECT_NAME":"STARLINK-2645","GP_ID":"217307267","MEAN_MOTION_DOT":"0.00009048","MEAN_MOTION_DDOT":"0.0000000000000","OBJECT_ID":"2021-040S","MEAN_MOTION":"15.06370069","APOAPSIS":"548.376","ECCENTRICITY":"0.00015460","COUNTRY_CODE":"US","ARG_OF_PERICENTER":"49.2821"},{"PERIAPSIS":"546.105","TIME_SYSTEM":"UTC","ELEMENT_SET_NO":"999","DECAY_DATE":null,"RA_OF_ASC_NODE":"235.5436","MEAN_ANOMALY":"322.3833","REF_FRAME":"TEME","PERIOD":"95.594","MEAN_ELEMENT_THEORY":"SGP4","EPOCH":"2022-11-10T18:50:07.391328","TLE_LINE2":"2 48445  53.0532 235.5436 0001727  37.7277 322.3833 15.06371457 83513","SEMIMAJOR_AXIS":"6925.436","CENTER_NAME":"EARTH","INCLINATION":"53.0532","NORAD_CAT_ID":"48445","TLE_LINE1":"1 48445U 21040T   22314.78480777  .00012918  00000-0  88522-3 0  9991","EPHEMERIS_TYPE":"0","SITE":"AFETR","RCS_SIZE":"LARGE","LAUNCH_DATE":"2021-05-09","OBJECT_NAME":"STARLINK-2634","GP_ID":"217368805","OBJECT_ID":"2021-040T","MEAN_MOTION_DDOT":"0.0000000000000","MEAN_MOTION_DOT":"0.00012918","REV_AT_EPOCH":"8351","CLASSIFICATION_TYPE":"U","BSTAR":"0.00088522000000","OBJECT_TYPE":"PAYLOAD","FILE":"3650843","APOAPSIS":"548.497","ECCENTRICITY":"0.00017270","COUNTRY_CODE":"US","ARG_OF_PERICENTER":"37.7277","MEAN_MOTION":"15.06371457"},{"RA_OF_ASC_NODE":"236.7579","PERIAPSIS":"545.909","TIME_SYSTEM":"UTC","ELEMENT_SET_NO":"999","DECAY_DATE":null,"TLE_LINE2":"2 48446  53.0526 236.7579 0002017  47.9851 312.1310 15.06370012 84752","SEMIMAJOR_AXIS":"6925.440","INCLINATION":"53.0526","CENTER_NAME":"EARTH","TLE_LINE1":"1 48446U 21040U   22314.51573297  .00010450  00000-0  71998-3 0  9991","NORAD_CAT_ID":"48446","EPHEMERIS_TYPE":"0","MEAN_ANOMALY":"312.1310","EPOCH":"2022-11-10T12:22:39.328608","PERIOD":"95.594","REF_FRAME":"TEME","MEAN_ELEMENT_THEORY":"SGP4","REV_AT_EPOCH":"8475","CLASSIFICATION_TYPE":"U","BSTAR":"0.00071998000000","OBJECT_TYPE":"PAYLOAD","FILE":"3650712","SITE":"AFETR","RCS_SIZE":"LARGE","LAUNCH_DATE":"2021-05-09","OBJECT_NAME":"STARLINK-2247","GP_ID":"217345559","OBJECT_ID":"2021-040U","MEAN_MOTION_DDOT":"0.0000000000000","MEAN_MOTION_DOT":"0.00010450","MEAN_MOTION":"15.06370012","APOAPSIS":"548.702","ECCENTRICITY":"0.00020170","COUNTRY_CODE":"US","ARG_OF_PERICENTER":"47.9851"},{"RA_OF_ASC_NODE":"236.7752","DECAY_DATE":null,"ELEMENT_SET_NO":"999","TIME_SYSTEM":"UTC","PERIAPSIS":"546.215","EPHEMERIS_TYPE":"0","NORAD_CAT_ID":"48447","TLE_LINE1":"1 48447U 21040V   22314.51204720  .00007823  00000-0  54389-3 0  9999","SEMIMAJOR_AXIS":"6925.436","INCLINATION":"53.0539","CENTER_NAME":"EARTH","TLE_LINE2":"2 48447  53.0539 236.7752 0001568  59.0127 301.1016 15.06371563 83471","PERIOD":"95.594","EPOCH":"2022-11-10T12:17:20.878080","REF_FRAME":"TEME","MEAN_ELEMENT_THEORY":"SGP4","MEAN_ANOMALY":"301.1016","FILE":"3650424","OBJECT_TYPE":"PAYLOAD","BSTAR":"0.00054389000000","CLASSIFICATION_TYPE":"U","REV_AT_EPOCH":"8347","GP_ID":"217309019","MEAN_MOTION_DDOT":"0.0000000000000","MEAN_MOTION_DOT":"0.00007823","OBJECT_ID":"2021-040V","OBJECT_NAME":"STARLINK-2269","LAUNCH_DATE":"2021-05-09","RCS_SIZE":"LARGE","SITE":"AFETR","MEAN_MOTION":"15.06371563","ARG_OF_PERICENTER":"59.0127","COUNTRY_CODE":"US","ECCENTRICITY":"0.00015680","APOAPSIS":"548.387"},{"RCS_SIZE":"LARGE","SITE":"AFETR","MEAN_MOTION_DOT":"-0.00004759","GP_ID":"217307768","MEAN_MOTION_DDOT":"0.0000000000000","OBJECT_ID":"2021-040W","LAUNCH_DATE":"2021-05-09","OBJECT_NAME":"STARLINK-2632","REV_AT_EPOCH":"8343","CLASSIFICATION_TYPE":"U","FILE":"3650424","BSTAR":"-0.00030101000000","OBJECT_TYPE":"PAYLOAD","APOAPSIS":"548.590","ECCENTRICITY":"0.00018810","COUNTRY_CODE":"US","ARG_OF_PERICENTER":"40.5167","MEAN_MOTION":"15.06375972","TIME_SYSTEM":"UTC","ELEMENT_SET_NO":"999","PERIAPSIS":"545.985","DECAY_DATE":null,"RA_OF_ASC_NODE":"237.8489","MEAN_ANOMALY":"319.5962","REF_FRAME":"TEME","PERIOD":"95.594","MEAN_ELEMENT_THEORY":"SGP4","EPOCH":"2022-11-10T06:30:58.314528","TLE_LINE2":"2 48448  53.0534 237.8489 0001881  40.5167 319.5962 15.06375972 83430","EPHEMERIS_TYPE":"0","INCLINATION":"53.0534","SEMIMAJOR_AXIS":"6925.422","CENTER_NAME":"EARTH","TLE_LINE1":"1 48448U 21040W   22314.27150827 -.00004759  00000-0 -30101-3 0  9994","NORAD_CAT_ID":"48448"},{"TLE_LINE2":"2 48449  53.0529 236.7873 0001651  51.7800 308.3337 15.06384049 84756","EPHEMERIS_TYPE":"0","SEMIMAJOR_AXIS":"6925.397","CENTER_NAME":"EARTH","INCLINATION":"53.0529","TLE_LINE1":"1 48449U 21040X   22314.50835446 -.00002697  00000-0 -16227-3 0  9990","NORAD_CAT_ID":"48449","MEAN_ANOMALY":"308.3337","PERIOD":"95.593","MEAN_ELEMENT_THEORY":"SGP4","REF_FRAME":"TEME","EPOCH":"2022-11-10T12:12:01.825344","RA_OF_ASC_NODE":"236.7873","TIME_SYSTEM":"UTC","ELEMENT_SET_NO":"999","PERIAPSIS":"546.119","DECAY_DATE":null,"MEAN_MOTION":"15.06384049","APOAPSIS":"548.406","ECCENTRICITY":"0.00016510","COUNTRY_CODE":"US","ARG_OF_PERICENTER":"51.7800","REV_AT_EPOCH":"8475","CLASSIFICATION_TYPE":"U","FILE":"3650712","BSTAR":"-0.00016227000000","OBJECT_TYPE":"PAYLOAD","RCS_SIZE":"LARGE","SITE":"AFETR","MEAN_MOTION_DDOT":"0.0000000000000","GP_ID":"217345566","OBJECT_ID":"2021-040X","MEAN_MOTION_DOT":"-0.00002697","LAUNCH_DATE":"2021-05-09","OBJECT_NAME":"STARLINK-2655"},{"ARG_OF_PERICENTER":"44.7577","COUNTRY_CODE":"US","ECCENTRICITY":"0.00020550","APOAPSIS":"548.711","MEAN_MOTION":"15.06375697","GP_ID":"217370053","MEAN_MOTION_DDOT":"0.0000000000000","OBJECT_ID":"2021-040Y","MEAN_MOTION_DOT":"-0.00004369","OBJECT_NAME":"STARLINK-2660","LAUNCH_DATE":"2021-05-09","RCS_SIZE":"LARGE","SITE":"AFETR","FILE":"3650843","OBJECT_TYPE":"PAYLOAD","BSTAR":"-0.00027473000000","CLASSIFICATION_TYPE":"U","REV_AT_EPOCH":"8348","PERIOD":"95.594","MEAN_ELEMENT_THEORY":"SGP4","REF_FRAME":"TEME","EPOCH":"2022-11-10T13:42:16.392384","MEAN_ANOMALY":"315.3578","EPHEMERIS_TYPE":"0","TLE_LINE1":"1 48450U 21040Y   22314.57102306 -.00004369  00000-0 -27473-3 0  9994","NORAD_CAT_ID":"48450","SEMIMAJOR_AXIS":"6925.423","CENTER_NAME":"EARTH","INCLINATION":"53.0544","TLE_LINE2":"2 48450  53.0544 236.5030 0002055  44.7577 315.3578 15.06375697 83483","DECAY_DATE":null,"ELEMENT_SET_NO":"999","TIME_SYSTEM":"UTC","PERIAPSIS":"545.865","RA_OF_ASC_NODE":"236.5030"},{"APOAPSIS":"548.429","ECCENTRICITY":"0.00016210","COUNTRY_CODE":"US","ARG_OF_PERICENTER":"69.2296","MEAN_MOTION":"15.06369838","SITE":"AFETR","RCS_SIZE":"LARGE","LAUNCH_DATE":"2021-05-09","OBJECT_NAME":"STARLINK-2652","GP_ID":"217345072","MEAN_MOTION_DOT":"-0.00004203","MEAN_MOTION_DDOT":"0.0000000000000","OBJECT_ID":"2021-040Z","REV_AT_EPOCH":"8475","CLASSIFICATION_TYPE":"U","BSTAR":"-0.00026363000000","OBJECT_TYPE":"PAYLOAD","FILE":"3650713","MEAN_ANOMALY":"290.8867","MEAN_ELEMENT_THEORY":"SGP4","PERIOD":"95.594","REF_FRAME":"TEME","EPOCH":"2022-11-10T12:05:22.130304","TLE_LINE2":"2 48451  53.0540 236.8409 0001621  69.2296 290.8867 15.06369838 84750","INCLINATION":"53.0540","SEMIMAJOR_AXIS":"6925.441","CENTER_NAME":"EARTH","TLE_LINE1":"1 48451U 21040Z   22314.50372836 -.00004203  00000-0 -26363-3 0  9999","NORAD_CAT_ID":"48451","EPHEMERIS_TYPE":"0","PERIAPSIS":"546.183","TIME_SYSTEM":"UTC","ELEMENT_SET_NO":"999","DECAY_DATE":null,"RA_OF_ASC_NODE":"236.8409"}];
